[ {"name": "STARLINK-37663", "line1": "1 69048U 26101Z   26133.83335647 -.01827492  00000+0 -82119-2 0  9998", "line2": "2 69048  97.2887 348.0295 0001288 103.5247 223.2369 15.87172540  2449"}]