{
  "norad_id": 69048,
  "name": "STARLINK-37663",
  "history": [
    {
      "epoch": "2026-05-13T20:00:01.999008Z",
      "apogee_km": 311.07583108195377,
      "perigee_km": 309.35291176867486,
      "latitude_deg": -33.22404555142943,
      "longitude_deg": -178.78830989197328,
      "height_km": 323.5143913887195,
      "semi_major_axis_km": 6688.351371425314,
      "eccentricity": 0.0001288,
      "inclination_deg": 97.2887,
      "raan_deg": 348.0295,
      "arg_perigee_deg": 103.5247,
      "mean_anomaly_deg": 223.2369,
      "mean_motion_rev_day": 15.8717254
    }
  ]
}